[Satellite]
VERSION=1.1
NAME=AO-123
NICKNAME=AO-123
TLE1=1 61781U 24199AY  25178.77990475  .00005068  00000-0  18432-3 0  9999
TLE2=2 61781  97.3521  46.2950 0017209 129.5647 230.7116 15.28559203 79669
STATUS=0
